[Satellite]
VERSION=1.1
NAME=GPS BIII-1  (PRN 04)
NICKNAME=GPS BIII-1  (PRN 04)
TLE1=1 43873U 18109A   20157.64916111  .00000070  00000-0  00000+0 0  9994
TLE2=2 43873  55.0065 179.1693 0008983 223.4776  36.0240  2.00563037 10847
STATUS=0
